{"type": "FeatureCollection", "features": [ {"type": "Feature", "properties": {"norad_id": 33492, "name": "GOSAT (IBUKI)", "group": "resource", "lat": -77.36298440742237, "lon": -115.64966220642651, "alt_km": 676.9248750353663, "timestamp": "2025-12-21T03:56:50.511321+00:00", "meta": {"OBJECT_NAME": "GOSAT (IBUKI)", "OBJECT_ID": "2009-002A", "EPOCH": "2025-12-20T18:34:59.716128", "MEAN_MOTION": 14.67539447, "ECCENTRICITY": 9.98e-05, "INCLINATION": 98.0771, "RA_OF_ASC_NODE": 103.2659, "ARG_OF_PERICENTER": 101.683, "MEAN_ANOMALY": 258.4487, "EPHEMERIS_TYPE": 0, "CLASSIFICATION_TYPE": "U", "NORAD_CAT_ID": 33492, "ELEMENT_SET_NO": 999, "REV_AT_EPOCH": 90529, "BSTAR": 0.00010741, "MEAN_MOTION_DOT": 5.61e-06, "MEAN_MOTION_DDOT": 0}, "tle": {"line1": "1 33492U 09002A   25354.77430227  .00000561  00000+0  10741-3 0  9990", "line2": "2 33492  98.0771 103.2659 0000998 101.6830 258.4487 14.67539447905299"}}, "geometry": {"type": "Point", "coordinates": [-115.64966220642651, -77.36298440742237]}}, {"type": "Feature", "properties": {"norad_id": 35681, "name": "DEIMOS-1", "group": "resource", "lat": -22.3081835280022, "lon": -27.813103818401057, "alt_km": 652.000322503286, "timestamp": "2025-12-21T03:56:50.511331+00:00", "meta": {"OBJECT_NAME": "DEIMOS-1", "OBJECT_ID": "2009-041A", "EPOCH": "2025-12-20T20:31:12.406080", "MEAN_MOTION": 14.7496404, "ECCENTRICITY": 0.0002593, "INCLINATION": 97.7144, "RA_OF_ASC_NODE": 155.0802, "ARG_OF_PERICENTER": 66.6697, "MEAN_ANOMALY": 293.4785, "EPHEMERIS_TYPE": 0, "CLASSIFICATION_TYPE": "U", "NORAD_CAT_ID": 35681, "ELEMENT_SET_NO": 999, "REV_AT_EPOCH": 88059, "BSTAR": 7.0229e-05, "MEAN_MOTION_DOT": 4.25e-06, "MEAN_MOTION_DDOT": 0}, "tle": {"line1": "1 35681U 09041A   25354.85500470  .00000425  00000+0  70229-4 0  9999", "line2": "2 35681  97.7144 155.0802 0002593  66.6697 293.4785 14.74964040880594"}}, "geometry": {"type": "Point", "coordinates": [-27.813103818401057, -22.3081835280022]}}, {"type": "Feature", "properties": {"norad_id": 35682, "name": "DUBAISAT-1", "group": "resource", "lat": 52.20411282994224, "lon": -43.85924397882963, "alt_km": 647.4823744741234, "timestamp": "2025-12-21T03:56:50.511341+00:00", "meta": {"OBJECT_NAME": "DUBAISAT-1", "OBJECT_ID": "2009-041B", "EPOCH": "2025-12-20T19:13:48.611712", "MEAN_MOTION": 14.74624023, "ECCENTRICITY": 0.0009246, "INCLINATION": 97.9798, "RA_OF_ASC_NODE": 125.3626, "ARG_OF_PERICENTER": 285.4997, "MEAN_ANOMALY": 74.519, "EPHEMERIS_TYPE": 0, "CLASSIFICATION_TYPE": "U", "NORAD_CAT_ID": 35682, "ELEMENT_SET_NO": 999, "REV_AT_EPOCH": 87880, "BSTAR": 0.00013802, "MEAN_MOTION_DOT": 8.7e-06, "MEAN_MOTION_DDOT": 0}, "tle": {"line1": "1 35682U 09041B   25354.80125708  .00000870  00000+0  13802-3 0  9999", "line2": "2 35682  97.9798 125.3626 0009246 285.4997  74.5190 14.74624023878805"}}, "geometry": {"type": "Point", "coordinates": [-43.85924397882963, 52.20411282994224]}}, {"type": "Feature", "properties": {"norad_id": 35931, "name": "OCEANSAT-2", "group": "resource", "lat": -13.399225023183655, "lon": 172.93655136709475, "alt_km": 911.060455940159, "timestamp": "2025-12-21T03:56:50.511351+00:00", "meta": {"OBJECT_NAME": "OCEANSAT-2", "OBJECT_ID": "2009-051A", "EPOCH": "2025-12-20T20:09:49.475808", "MEAN_MOTION": 13.99623025, "ECCENTRICITY": 0.0016009, "INCLINATION": 98.2217, "RA_OF_ASC_NODE": 354.6189, "ARG_OF_PERICENTER": 23.8258, "MEAN_ANOMALY": 336.3647, "EPHEMERIS_TYPE": 0, "CLASSIFICATION_TYPE": "U", "NORAD_CAT_ID": 35931, "ELEMENT_SET_NO": 999, "REV_AT_EPOCH": 85438, "BSTAR": -6.2798e-05, "MEAN_MOTION_DOT": -1.29e-06, "MEAN_MOTION_DDOT": 0}, "tle": {"line1": "1 35931U 09051A   25354.84015597 -.00000129  00000+0 -62798-4 0  9993", "line2": "2 35931  98.2217 354.6189 0016009  23.8258 336.3647 13.99623025854382"}}, "geometry": {"type": "Point", "coordinates": [172.93655136709475, -13.399225023183655]}}, {"type": "Feature", "properties": {"norad_id": 35946, "name": "WORLDVIEW-2 (WV-2)", "group": "resource", "lat": 28.435019982702954, "lon": 61.50080781624467, "alt_km": 761.4276316009236, "timestamp": "2025-12-21T03:56:50.511360+00:00", "meta": {"OBJECT_NAME": "WORLDVIEW-2 (WV-2)", "OBJECT_ID": "2009-055A", "EPOCH": "2025-12-20T19:27:45.788832", "MEAN_MOTION": 14.37727192, "ECCENTRICITY": 0.000491, "INCLINATION": 98.4779, "RA_OF_ASC_NODE": 65.7847, "ARG_OF_PERICENTER": 50.919, "MEAN_ANOMALY": 309.2433, "EPHEMERIS_TYPE": 0, "CLASSIFICATION_TYPE": "U", "NORAD_CAT_ID": 35946, "ELEMENT_SET_NO": 999, "REV_AT_EPOCH": 85001, "BSTAR": 5.0314e-05, "MEAN_MOTION_DOT": 1.08e-06, "MEAN_MOTION_DDOT": 0}, "tle": {"line1": "1 35946U 09055A   25354.81094663  .00000108  00000+0  50314-4 0  9997", "line2": "2 35946  98.4779  65.7847 0004910  50.9190 309.2433 14.37727192850019"}}, "geometry": {"type": "Point", "coordinates": [61.50080781624467, 28.435019982702954]}}, {"type": "Feature", "properties": {"norad_id": 36036, "name": "SMOS", "group": "resource", "lat": 53.57136118834498, "lon": 11.690923723992968, "alt_km": 753.7106595962623, "timestamp": "2025-12-21T03:56:50.511369+00:00", "meta": {"OBJECT_NAME": "SMOS", "OBJECT_ID": "2009-059A", "EPOCH": "2025-12-20T12:21:18.783072", "MEAN_MOTION": 14.39747686, "ECCENTRICITY": 0.0001079, "INCLINATION": 98.438, "RA_OF_ASC_NODE": 179.4481, "ARG_OF_PERICENTER": 83.7466, "MEAN_ANOMALY": 276.3845, "EPHEMERIS_TYPE": 0, "CLASSIFICATION_TYPE": "U", "NORAD_CAT_ID": 36036, "ELEMENT_SET_NO": 999, "REV_AT_EPOCH": 84774, "BSTAR": 0.00010402639, "MEAN_MOTION_DOT": 2.82e-06, "MEAN_MOTION_DDOT": 0}, "tle": {"line1": "1 36036U 09059A   25354.51480073  .00000282  00000+0  10403-3 0  9990", "line2": "2 36036  98.4380 179.4481 0001079  83.7466 276.3845 14.39747686847747"}}, "geometry": {"type": "Point", "coordinates": [11.690923723992968, 53.57136118834498]}}, {"type": "Feature", "properties": {"norad_id": 36110, "name": "YAOGAN-7", "group": "resource", "lat": 20.76316402041503, "lon": -126.17684425082541, "alt_km": 646.58118461719, "timestamp": "2025-12-21T03:56:50.511379+00:00", "meta": {"OBJECT_NAME": "YAOGAN-7", "OBJECT_ID": "2009-069A", "EPOCH": "2025-12-20T14:51:06.633792", "MEAN_MOTION": 14.77742759, "ECCENTRICITY": 0.0023346, "INCLINATION": 98.0296, "RA_OF_ASC_NODE": 236.3475, "ARG_OF_PERICENTER": 254.4203, "MEAN_ANOMALY": 105.443, "EPHEMERIS_TYPE": 0, "CLASSIFICATION_TYPE": "U", "NORAD_CAT_ID": 36110, "ELEMENT_SET_NO": 999, "REV_AT_EPOCH": 86325, "BSTAR": 6.6216e-05, "MEAN_MOTION_DOT": 4.23e-06, "MEAN_MOTION_DDOT": 0}, "tle": {"line1": "1 36110U 09069A   25354.61882678  .00000423  00000+0  66216-4 0  9993", "line2": "2 36110  98.0296 236.3475 0023346 254.4203 105.4430 14.77742759863259"}}, "geometry": {"type": "Point", "coordinates": [-126.17684425082541, 20.76316402041503]}}, {"type": "Feature", "properties": {"norad_id": 36605, "name": "TANDEM-X", "group": "resource", "lat": 77.79890643843727, "lon": -36.7867521656879, "alt_km": 499.88229442254124, "timestamp": "2025-12-21T03:56:50.511388+00:00", "meta": {"OBJECT_NAME": "TANDEM-X", "OBJECT_ID": "2010-030A", "EPOCH": "2025-12-20T11:47:12.909696", "MEAN_MOTION": 15.19154059, "ECCENTRICITY": 0.00018, "INCLINATION": 97.4444, "RA_OF_ASC_NODE": 359.7582, "ARG_OF_PERICENTER": 78.1402, "MEAN_ANOMALY": 282.0034, "EPHEMERIS_TYPE": 0, "CLASSIFICATION_TYPE": "U", "NORAD_CAT_ID": 36605, "ELEMENT_SET_NO": 999, "REV_AT_EPOCH": 85951, "BSTAR": 3.1882e-05, "MEAN_MOTION_DOT": 6.03e-06, "MEAN_MOTION_DDOT": 0}, "tle": {"line1": "1 36605U 10030A   25354.49112164  .00000603  00000+0  31882-4 0  9995", "line2": "2 36605  97.4444 359.7582 0001800  78.1402 282.0034 15.19154059859511"}}, "geometry": {"type": "Point", "coordinates": [-36.7867521656879, 77.79890643843727]}}, {"type": "Feature", "properties": {"norad_id": 36795, "name": "CARTOSAT-2B", "group": "resource", "lat": -21.885137954221303, "lon": 47.07121862675496, "alt_km": 636.1592133634285, "timestamp": "2025-12-21T03:56:50.511398+00:00", "meta": {"OBJECT_NAME": "CARTOSAT-2B", "OBJECT_ID": "2010-035A", "EPOCH": "2025-12-20T19:55:37.081056", "MEAN_MOTION": 14.7873418, "ECCENTRICITY": 0.001279, "INCLINATION": 97.7846, "RA_OF_ASC_NODE": 43.5978, "ARG_OF_PERICENTER": 52.726, "MEAN_ANOMALY": 307.5115, "EPHEMERIS_TYPE": 0, "CLASSIFICATION_TYPE": "U", "NORAD_CAT_ID": 36795, "ELEMENT_SET_NO": 999, "REV_AT_EPOCH": 83349, "BSTAR": 4.8128e-05, "MEAN_MOTION_DOT": 3.04e-06, "MEAN_MOTION_DDOT": 0}, "tle": {"line1": "1 36795U 10035A   25354.83029029  .00000304  00000+0  48128-4 0  9994", "line2": "2 36795  97.7846  43.5978 0012790  52.7260 307.5115 14.78734180833492"}}, "geometry": {"type": "Point", "coordinates": [47.07121862675496, -21.885137954221303]}}, {"type": "Feature", "properties": {"norad_id": 36834, "name": "YAOGAN-10", "group": "resource", "lat": -56.143796786961204, "lon": -177.04409910415907, "alt_km": 622.7351484680448, "timestamp": "2025-12-21T03:56:50.511407+00:00", "meta": {"OBJECT_NAME": "YAOGAN-10", "OBJECT_ID": "2010-038A", "EPOCH": "2025-12-20T20:57:57.078720", "MEAN_MOTION": 14.84634064, "ECCENTRICITY": 0.0001417, "INCLINATION": 97.9133, "RA_OF_ASC_NODE": 14.6333, "ARG_OF_PERICENTER": 78.5623, "MEAN_ANOMALY": 44.5372, "EPHEMERIS_TYPE": 0, "CLASSIFICATION_TYPE": "U", "NORAD_CAT_ID": 36834, "ELEMENT_SET_NO": 999, "REV_AT_EPOCH": 83074, "BSTAR": 9.013e-05, "MEAN_MOTION_DOT": 7.08e-06, "MEAN_MOTION_DDOT": 0}, "tle": {"line1": "1 36834U 10038A   25354.87357730  .00000708  00000+0  90130-4 0  9996", "line2": "2 36834  97.9133  14.6333 0001417  78.5623  44.5372 14.84634064830749"}}, "geometry": {"type": "Point", "coordinates": [-177.04409910415907, -56.143796786961204]}}]}